$$SOE
2460721.500000000, A.D. 2025-Feb-15 00:00:00.0000, -2.917297466636288E+08, 5.701588899836980E+08, 1.871225191841481E+08,
2460728.500000000, A.D. 2025-Feb-22 00:00:00.0000, -2.977491428502452E+08, 5.699665229722171E+08, 1.867604976667980E+08,
2460735.500000000, A.D. 2025-Mar-01 00:00:00.0000, -3.037202361977959E+08, 5.696819915225883E+08, 1.863681994878106E+08,
2460742.500000000, A.D. 2025-Mar-08 00:00:00.0000, -3.096425657147630E+08, 5.693062965742750E+08, 1.859459992711234E+08,
2460749.500000000, A.D. 2025-Mar-15 00:00:00.0000, -3.155156762843560E+08, 5.688404161716415E+08, 1.854942625954134E+08,
2460756.500000000, A.D. 2025-Mar-22 00:00:00.0000, -3.213391202775019E+08, 5.682853066979105E+08, 1.850133465539213E+08,
2460763.500000000, A.D. 2025-Mar-29 00:00:00.0000, -3.271124578256447E+08, 5.676419018222407E+08, 1.845035999928424E+08,
2460770.500000000, A.D. 2025-Apr-05 00:00:00.0000, -3.328352554263043E+08, 5.669111122999223E+08, 1.839653636553476E+08,
2460777.500000000, A.D. 2025-Apr-12 00:00:00.0000, -3.385070848055075E+08, 5.660938267318285E+08, 1.833989704168616E+08,
2460784.500000000, A.D. 2025-Apr-19 00:00:00.0000, -3.441275222222533E+08, 5.651909124036005E+08, 1.828047455569945E+08,
2460791.500000000, A.D. 2025-Apr-26 00:00:00.0000, -3.496961479415095E+08, 5.642032160030931E+08, 1.821830070267961E+08,
2460798.500000000, A.D. 2025-May-03 00:00:00.0000, -3.552125457604525E+08, 5.631315642367568E+08, 1.815340657026894E+08,
2460805.500000000, A.D. 2025-May-10 00:00:00.0000, -3.606763025578924E+08, 5.619767643550811E+08, 1.808582256254392E+08,
2460812.500000000, A.D. 2025-May-17 00:00:00.0000, -3.660870078288004E+08, 5.607396045474563E+08, 1.801557842177351E+08,
2460819.500000000, A.D. 2025-May-24 00:00:00.0000, -3.714442530287507E+08, 5.594208541532812E+08, 1.794270324603150E+08,
2460826.500000000, A.D. 2025-May-31 00:00:00.0000, -3.767476303093553E+08, 5.580212640014989E+08, 1.786722550140837E+08,
2460833.500000000, A.D. 2025-Jun-07 00:00:00.0000, -3.819967310446771E+08, 5.565415680845865E+08, 1.778917304238855E+08,
2460840.500000000, A.D. 2025-Jun-14 00:00:00.0000, -3.871911465122246E+08, 5.549824859015765E+08, 1.770857315668125E+08,
2460847.500000000, A.D. 2025-Jun-21 00:00:00.0000, -3.923304695104226E+08, 5.533447221998445E+08, 1.762545259664106E+08,
2460854.500000000, A.D. 2025-Jun-28 00:00:00.0000, -3.974142937832983E+08, 5.516289658808825E+08, 1.753983758302899E+08,
2460861.500000000, A.D. 2025-Jul-05 00:00:00.0000, -4.024422127685922E+08, 5.498358902274804E+08, 1.745175381269500E+08,
2460868.500000000, A.D. 2025-Jul-12 00:00:00.0000, -4.074138188595831E+08, 5.479661536482038E+08, 1.736122647457345E+08,
2460875.500000000, A.D. 2025-Jul-19 00:00:00.0000, -4.123287029901685E+08, 5.460204003650665E+08, 1.726828026759035E+08,
2460882.500000000, A.D. 2025-Jul-26 00:00:00.0000, -4.171864543324720E+08, 5.439992609886382E+08, 1.717293941812964E+08,
2460889.500000000, A.D. 2025-Aug-02 00:00:00.0000, -4.219866600408842E+08, 5.419033530030469E+08, 1.707522769667394E+08,
2460896.500000000, A.D. 2025-Aug-09 00:00:00.0000, -4.267289050184707E+08, 5.397332811471111E+08, 1.697516843332715E+08,
2460903.500000000, A.D. 2025-Aug-16 00:00:00.0000, -4.314127716281860E+08, 5.374896376292753E+08, 1.687278453104066E+08,
2460910.500000000, A.D. 2025-Aug-23 00:00:00.0000, -4.360378390556805E+08, 5.351730021937040E+08, 1.676809847404043E+08,
2460917.500000000, A.D. 2025-Aug-30 00:00:00.0000, -4.406036819942576E+08, 5.327839427523977E+08, 1.666113233432324E+08,
2460924.500000000, A.D. 2025-Sep-06 00:00:00.0000, -4.451098700697402E+08, 5.303230175845275E+08, 1.655190779746032E+08,
2460931.500000000, A.D. 2025-Sep-13 00:00:00.0000, -4.495559696754233E+08, 5.277907766211835E+08, 1.644044620279810E+08,
2460938.500000000, A.D. 2025-Sep-20 00:00:00.0000, -4.539415449428551E+08, 5.251877601717061E+08, 1.632676855462754E+08,
2460945.500000000, A.D. 2025-Sep-27 00:00:00.0000, -4.582661567892580E+08, 5.225144982034324E+08, 1.621089552007016E+08,
2460952.500000000, A.D. 2025-Oct-04 00:00:00.0000, -4.625293620579143E+08, 5.197715107147485E+08, 1.609284743662361E+08,
2460959.500000000, A.D. 2025-Oct-11 00:00:00.0000, -4.667307131245896E+08, 5.169593082591282E+08, 1.597264432511418E+08,
2460966.500000000, A.D. 2025-Oct-18 00:00:00.0000, -4.708697576857333E+08, 5.140783923462442E+08, 1.585030590322654E+08,
2460973.500000000, A.D. 2025-Oct-25 00:00:00.0000, -4.749460385885434E+08, 5.111292557317061E+08, 1.572585159843379E+08,
2460980.500000000, A.D. 2025-Nov-01 00:00:00.0000, -4.789590936632411E+08, 5.081123826116671E+08, 1.559930056010569E+08,
2460987.500000000, A.D. 2025-Nov-08 00:00:00.0000, -4.829084555227962E+08, 5.050282486918307E+08, 1.547067167023321E+08,
2460994.500000000, A.D. 2025-Nov-15 00:00:00.0000, -4.867936511820206E+08, 5.018773210733457E+08, 1.533998355094128E+08,
2461001.500000000, A.D. 2025-Nov-22 00:00:00.0000, -4.906142010929226E+08, 4.986600581766920E+08, 1.520725456689478E+08,
2461008.500000000, A.D. 2025-Nov-29 00:00:00.0000, -4.943696177492749E+08, 4.953769108394480E+08, 1.507250283327732E+08,
2461015.500000000, A.D. 2025-Dec-06 00:00:00.0000, -4.980594061375526E+08, 4.920283244529560E+08, 1.493574624912325E+08,
2461022.500000000, A.D. 2025-Dec-13 00:00:00.0000, -5.016830655999929E+08, 4.886147387685479E+08, 1.479700252448295E+08,
2461029.500000000, A.D. 2025-Dec-20 00:00:00.0000, -5.052400896157615E+08, 4.851365863969231E+08, 1.465628917773191E+08,
2461036.500000000, A.D. 2025-Dec-27 00:00:00.0000, -5.087299645737159E+08, 4.815942925924759E+08, 1.451362353405551E+08,
2461043.500000000, A.D. 2026-Jan-03 00:00:00.0000, -5.121521689957865E+08, 4.779882757080767E+08, 1.436902273348503E+08,
2461050.500000000, A.D. 2026-Jan-10 00:00:00.0000, -5.155061731007266E+08, 4.743189476426063E+08, 1.422250374195150E+08,
2461057.500000000, A.D. 2026-Jan-17 00:00:00.0000, -5.187914384750935E+08, 4.705867141908505E+08, 1.407408336249617E+08,
2461064.500000000, A.D. 2026-Jan-24 00:00:00.0000, -5.220074177729599E+08, 4.667919753196259E+08, 1.392377824613092E+08,
2461071.500000000, A.D. 2026-Jan-31 00:00:00.0000, -5.251535544203491E+08, 4.629351253639559E+08, 1.377160490209669E+08,
2461078.500000000, A.D. 2026-Feb-07 00:00:00.0000, -5.282292822623194E+08, 4.590165530871717E+08, 1.361757970651192E+08,
2461085.500000000, A.D. 2026-Feb-14 00:00:00.0000, -5.312340248990698E+08, 4.550366415907821E+08, 1.346171890698912E+08,
2461092.500000000, A.D. 2026-Feb-21 00:00:00.0000, -5.341671943229850E+08, 4.509957686521441E+08, 1.330403862440542E+08,
2461099.500000000, A.D. 2026-Feb-28 00:00:00.0000, -5.370281899411169E+08, 4.468943086443003E+08, 1.314455487123308E+08,
2461106.500000000, A.D. 2026-Mar-07 00:00:00.0000, -5.398164000413754E+08, 4.427326340889499E+08, 1.298328358941015E+08,
2461113.500000000, A.D. 2026-Mar-14 00:00:00.0000, -5.425312029259709E+08, 4.385111145104941E+08, 1.282024066325642E+08,
2461120.500000000, A.D. 2026-Mar-21 00:00:00.0000, -5.451719659284400E+08, 4.342301154892746E+08, 1.265544191478781E+08,
2461127.500000000, A.D. 2026-Mar-28 00:00:00.0000, -5.477380443233949E+08, 4.298899989430041E+08, 1.248890310830448E+08,
2461134.500000000, A.D. 2026-Apr-04 00:00:00.0000, -5.502287807323809E+08, 4.254911236714395E+08, 1.232063996194517E+08,
2461141.500000000, A.D. 2026-Apr-11 00:00:00.0000, -5.526435047512872E+08, 4.210338458049864E+08, 1.215066816079758E+08,
2461148.500000000, A.D. 2026-Apr-18 00:00:00.0000, -5.549815326392093E+08, 4.165185191510844E+08, 1.197900337009248E+08,
2461155.500000000, A.D. 2026-Apr-25 00:00:00.0000, -5.572421670219717E+08, 4.119454954536320E+08, 1.180566124822483E+08,
2461162.500000000, A.D. 2026-May-02 00:00:00.0000, -5.594246965785104E+08, 4.073151245364275E+08, 1.163065745912140E+08,
2461169.500000000, A.D. 2026-May-09 00:00:00.0000, -5.615283955842413E+08, 4.026277542650416E+08, 1.145400768230988E+08,
2461176.500000000, A.D. 2026-May-16 00:00:00.0000, -5.635525229320667E+08, 3.978837304660781E+08, 1.127572761838707E+08,
2461183.500000000, A.D. 2026-May-23 00:00:00.0000, -5.654963205778006E+08, 3.930833978267310E+08, 1.109583299779208E+08,
2461190.500000000, A.D. 2026-May-30 00:00:00.0000, -5.673590134873141E+08, 3.882271020947721E+08, 1.091433961458358E+08,
2461197.500000000, A.D. 2026-Jun-06 00:00:00.0000, -5.691398114015719E+08, 3.833151903061892E+08, 1.073126336139897E+08,
2461204.500000000, A.D. 2026-Jun-13 00:00:00.0000, -5.708379087520747E+08, 3.783480092399067E+08, 1.054662023360528E+08,
2461211.500000000, A.D. 2026-Jun-20 00:00:00.0000, -5.724524832266259E+08, 3.733259050259530E+08, 1.036042633115704E+08,
2461218.500000000, A.D. 2026-Jun-27 00:00:00.0000, -5.739826946832169E+08, 3.682492235680138E+08, 1.017269787098028E+08,
2461225.500000000, A.D. 2026-Jul-04 00:00:00.0000, -5.754276844113432E+08, 3.631183110067585E+08, 9.983451203569768E+07,
2461232.500000000, A.D. 2026-Jul-11 00:00:00.0000, -5.767865744856397E+08, 3.579335140933576E+08, 9.792702830406919E+07,
2461239.500000000, A.D. 2026-Jul-18 00:00:00.0000, -5.780584671177416E+08, 3.526951805002202E+08, 9.600469421571279E+07,
2461246.500000000, A.D. 2026-Jul-25 00:00:00.0000, -5.792424439804248E+08, 3.474036590729741E+08, 9.406767833360085E+07,
2461253.500000000, A.D. 2026-Aug-01 00:00:00.0000, -5.803375654543351E+08, 3.420592999769025E+08, 9.211615125103348E+07,
2461260.500000000, A.D. 2026-Aug-08 00:00:00.0000, -5.813428695807569E+08, 3.366624547033551E+08, 9.015028572939658E+07,
2461267.500000000, A.D. 2026-Aug-15 00:00:00.0000, -5.822573703036551E+08, 3.312134763879861E+08, 8.817025680463722E+07,
2461274.500000000, A.D. 2026-Aug-22 00:00:00.0000, -5.830800557604095E+08, 3.257127216636925E+08, 8.617624203253432E+07,
2461281.500000000, A.D. 2026-Aug-29 00:00:00.0000, -5.838098889089181E+08, 3.201605526774763E+08, 8.416842197112614E+07,
2461288.500000000, A.D. 2026-Sep-05 00:00:00.0000, -5.844458083556005E+08, 3.145573364054513E+08, 8.214698047085895E+07,
$$EOE